[{"OBJECT_NAME":"CENTISPACE-1 S7","OBJECT_ID":"2025-007B","EPOCH":"2026-03-09T21:41:40.317504","MEAN_MOTION":13.83163062,"ECCENTRICITY":0.00097398,"INCLINATION":54.9754,"RA_OF_ASC_NODE":279.2765,"ARG_OF_PERICENTER":301.0996,"MEAN_ANOMALY":58.9005,"EPHEMERIS_TYPE":0,"CLASSIFICATION_TYPE":"U","NORAD_CAT_ID":62576,"ELEMENT_SET_NO":999,"REV_AT_EPOCH":6100,"BSTAR":0.00010048958,"MEAN_MOTION_DOT":-3.1e-7,"MEAN_MOTION_DDOT":0},{"OBJECT_NAME":"PRAETORIAN SDA_613","OBJECT_ID":"2025-203M","EPOCH":"2026-03-09T13:55:41.751840","MEAN_MOTION":13.82988142,"ECCENTRICITY":0.0007018,"INCLINATION":81.2965,"RA_OF_ASC_NODE":103.0101,"ARG_OF_PERICENTER":103.9761,"MEAN_ANOMALY":256.2175,"EPHEMERIS_TYPE":0,"CLASSIFICATION_TYPE":"U","NORAD_CAT_ID":65576,"ELEMENT_SET_NO":999,"REV_AT_EPOCH":2491,"BSTAR":0.00021006,"MEAN_MOTION_DOT":2.41e-6,"MEAN_MOTION_DDOT":0}]
